{
  "type": "FeatureCollection",
  "features": [
    {
      "type": "Feature",
      "properties": {
        "norad_id": 43208,
        "name": "BEIDOU-3 M3 (C21)",
        "group": "beidou",
        "lat": -38.70558622753639,
        "lon": -78.51382225551133,
        "alt_km": 21532.48064383679,
        "timestamp": "2025-12-08T10:52:03.212746+00:00",
        "meta_object_name": "BEIDOU-3 M3 (C21)",
        "meta_object_id": "2018-018B",
        "meta_epoch": "2025-12-03T06:41:57.693408",
        "meta_mean_motion": 1.86230862,
        "meta_eccentricity": 0.0006282,
        "meta_inclination": 56.4772,
        "meta_ra_of_asc_node": 69.6218,
        "meta_arg_of_pericenter": 317.5873,
        "meta_mean_anomaly": 42.3668,
        "meta_ephemeris_type": 0,
        "meta_classification_type": "U",
        "meta_norad_cat_id": 43208,
        "meta_element_set_no": 999,
        "meta_rev_at_epoch": 5309,
        "meta_bstar": 0,
        "meta_mean_motion_dot": -4.9e-07,
        "meta_mean_motion_ddot": 0,
        "tle_line1": "1 43208U 18018B   25337.27913997 -.00000049  00000+0  00000+0 0  9994",
        "tle_line2": "2 43208  56.4772  69.6218 0006282 317.5873  42.3668  1.86230862 53096"
      },
      "geometry": {
        "type": "Point",
        "coordinates": [
          -78.51382225551133,
          -38.70558622753639
        ]
      }
    },
    {
      "type": "Feature",
      "properties": {
        "norad_id": 43245,
        "name": "BEIDOU-3 M9 (C29)",
        "group": "beidou",
        "lat": 53.90216944326943,
        "lon": 25.976524218904128,
        "alt_km": 21526.485152201072,
        "timestamp": "2025-12-08T10:52:03.212758+00:00",
        "meta_object_name": "BEIDOU-3 M9 (C29)",
        "meta_object_id": "2018-029A",
        "meta_epoch": "2025-12-07T06:05:41.943552",
        "meta_mean_motion": 1.86227905,
        "meta_eccentricity": 0.00016267,
        "meta_inclination": 54.3707,
        "meta_ra_of_asc_node": 306.6586,
        "meta_arg_of_pericenter": 277.0016,
        "meta_mean_anomaly": 82.965,
        "meta_ephemeris_type": 0,
        "meta_classification_type": "U",
        "meta_norad_cat_id": 43245,
        "meta_element_set_no": 999,
        "meta_rev_at_epoch": 5232,
        "meta_bstar": 0,
        "meta_mean_motion_dot": -7e-07,
        "meta_mean_motion_ddot": 0,
        "tle_line1": "1 43245U 18029A   25341.25395768 -.00000070  00000+0  00000+0 0  9994",
        "tle_line2": "2 43245  54.3707 306.6586 0001626 277.0016  82.9650  1.86227905 52320"
      },
      "geometry": {
        "type": "Point",
        "coordinates": [
          25.976524218904128,
          53.90216944326943
        ]
      }
    },
    {
      "type": "Feature",
      "properties": {
        "norad_id": 43246,
        "name": "BEIDOU-3 M10 (C30)",
        "group": "beidou",
        "lat": 40.32552630563978,
        "lon": 89.15115702381077,
        "alt_km": 21530.130281083435,
        "timestamp": "2025-12-08T10:52:03.212769+00:00",
        "meta_object_name": "BEIDOU-3 M10 (C30)",
        "meta_object_id": "2018-029B",
        "meta_epoch": "2025-12-07T04:32:29.911776",
        "meta_mean_motion": 1.86228892,
        "meta_eccentricity": 0.00040611,
        "meta_inclination": 54.3683,
        "meta_ra_of_asc_node": 306.6886,
        "meta_arg_of_pericenter": 0.524,
        "meta_mean_anomaly": 359.4613,
        "meta_ephemeris_type": 0,
        "meta_classification_type": "U",
        "meta_norad_cat_id": 43246,
        "meta_element_set_no": 999,
        "meta_rev_at_epoch": 5230,
        "meta_bstar": 0,
        "meta_mean_motion_dot": -7e-07,
        "meta_mean_motion_ddot": 0,
        "tle_line1": "1 43246U 18029B   25341.18923509 -.00000070  00000+0  00000+0 0  9997",
        "tle_line2": "2 43246  54.3683 306.6886 0004061   0.5240 359.4613  1.86228892 52306"
      },
      "geometry": {
        "type": "Point",
        "coordinates": [
          89.15115702381077,
          40.32552630563978
        ]
      }
    },
    {
      "type": "Feature",
      "properties": {
        "norad_id": 43539,
        "name": "BEIDOU-2 IGSO-7 (C16)",
        "group": "beidou",
        "lat": -5.04048177997162,
        "lon": -11.77326923671385,
        "alt_km": 35533.94508881992,
        "timestamp": "2025-12-08T10:52:03.212781+00:00",
        "meta_object_name": "BEIDOU-2 IGSO-7 (C16)",
        "meta_object_id": "2018-057A",
        "meta_epoch": "2025-12-07T10:43:46.663104",
        "meta_mean_motion": 1.0025846,
        "meta_eccentricity": 0.00925092,
        "meta_inclination": 55.1739,
        "meta_ra_of_asc_node": 164.7176,
        "meta_arg_of_pericenter": 235.2145,
        "meta_mean_anomaly": 308.6901,
        "meta_ephemeris_type": 0,
        "meta_classification_type": "U",
        "meta_norad_cat_id": 43539,
        "meta_element_set_no": 999,
        "meta_rev_at_epoch": 2720,
        "meta_bstar": 0,
        "meta_mean_motion_dot": -6.7e-07,
        "meta_mean_motion_ddot": 0,
        "tle_line1": "1 43539U 18057A   25341.44706786 -.00000067  00000+0  00000+0 0  9994",
        "tle_line2": "2 43539  55.1739 164.7176 0092509 235.2145 308.6901  1.00258460 27209"
      },
      "geometry": {
        "type": "Point",
        "coordinates": [
          -11.77326923671385,
          -5.04048177997162
        ]
      }
    },
    {
      "type": "Feature",
      "properties": {
        "norad_id": 43581,
        "name": "BEIDOU-3 M5 (C23)",
        "group": "beidou",
        "lat": -18.839603215290843,
        "lon": 174.47748334213378,
        "alt_km": 21525.198914161363,
        "timestamp": "2025-12-08T10:52:03.212793+00:00",
        "meta_object_name": "BEIDOU-3 M5 (C23)",
        "meta_object_id": "2018-062A",
        "meta_epoch": "2025-12-07T09:56:06.121536",
        "meta_mean_motion": 1.86228654,
        "meta_eccentricity": 0.00021243,
        "meta_inclination": 54.089,
        "meta_ra_of_asc_node": 188.8244,
        "meta_arg_of_pericenter": 353.2088,
        "meta_mean_anomaly": 6.859,
        "meta_ephemeris_type": 0,
        "meta_classification_type": "U",
        "meta_norad_cat_id": 43581,
        "meta_element_set_no": 999,
        "meta_rev_at_epoch": 5006,
        "meta_bstar": 0,
        "meta_mean_motion_dot": 5.9e-07,
        "meta_mean_motion_ddot": 0,
        "tle_line1": "1 43581U 18062A   25341.41395974  .00000059  00000+0  00000+0 0  9997",
        "tle_line2": "2 43581  54.0890 188.8244 0002124 353.2088   6.8590  1.86228654 50063"
      },
      "geometry": {
        "type": "Point",
        "coordinates": [
          174.47748334213378,
          -18.839603215290843
        ]
      }
    },
    {
      "type": "Feature",
      "properties": {
        "norad_id": 43582,
        "name": "BEIDOU-3 M6 (C24)",
        "group": "beidou",
        "lat": 48.83566155223001,
        "lon": -115.21375926267912,
        "alt_km": 21502.279703863165,
        "timestamp": "2025-12-08T10:52:03.212804+00:00",
        "meta_object_name": "BEIDOU-3 M6 (C24)",
        "meta_object_id": "2018-062B",
        "meta_epoch": "2025-12-06T17:45:46.056960",
        "meta_mean_motion": 1.86229666,
        "meta_eccentricity": 0.00077578,
        "meta_inclination": 54.0886,
        "meta_ra_of_asc_node": 188.8365,
        "meta_arg_of_pericenter": 46.2295,
        "meta_mean_anomaly": 313.9106,
        "meta_ephemeris_type": 0,
        "meta_classification_type": "U",
        "meta_norad_cat_id": 43582,
        "meta_element_set_no": 999,
        "meta_rev_at_epoch": 5005,
        "meta_bstar": 0,
        "meta_mean_motion_dot": 6.8e-07,
        "meta_mean_motion_ddot": 0,
        "tle_line1": "1 43582U 18062B   25340.74011640  .00000068  00000+0  00000+0 0  9998",
        "tle_line2": "2 43582  54.0886 188.8365 0007757  46.2295 313.9106  1.86229666 50057"
      },
      "geometry": {
        "type": "Point",
        "coordinates": [
          -115.21375926267912,
          48.83566155223001
        ]
      }
    },
    {
      "type": "Feature",
      "properties": {
        "norad_id": 43602,
        "name": "BEIDOU-3 M12 (C26)",
        "group": "beidou",
        "lat": 49.52918098406499,
        "lon": -50.33443604238789,
        "alt_km": 21513.4486164994,
        "timestamp": "2025-12-08T10:52:03.212815+00:00",
        "meta_object_name": "BEIDOU-3 M12 (C26)",
        "meta_object_id": "2018-067A",
        "meta_epoch": "2025-12-07T05:09:21.328416",
        "meta_mean_motion": 1.86227676,
        "meta_eccentricity": 0.00091602,
        "meta_inclination": 54.1831,
        "meta_ra_of_asc_node": 187.5507,
        "meta_arg_of_pericenter": 40.7736,
        "meta_mean_anomaly": 319.3651,
        "meta_ephemeris_type": 0,
        "meta_classification_type": "U",
        "meta_norad_cat_id": 43602,
        "meta_element_set_no": 999,
        "meta_rev_at_epoch": 4954,
        "meta_bstar": 0,
        "meta_mean_motion_dot": 6.2e-07,
        "meta_mean_motion_ddot": 0,
        "tle_line1": "1 43602U 18067A   25341.21483019  .00000062  00000+0  00000+0 0  9996",
        "tle_line2": "2 43602  54.1831 187.5507 0009160  40.7736 319.3651  1.86227676 49540"
      },
      "geometry": {
        "type": "Point",
        "coordinates": [
          -50.33443604238789,
          49.52918098406499
        ]
      }
    }
  ]
}